[{"OBJECT_NAME":"UHETSAT","OBJECT_ID":"2023-185E","EPOCH":"2026-03-09T22:39:26.455680","MEAN_MOTION":15.29797662,"ECCENTRICITY":0.00118435,"INCLINATION":97.3584,"RA_OF_ASC_NODE":137.3576,"ARG_OF_PERICENTER":307.7346,"MEAN_ANOMALY":52.2821,"EPHEMERIS_TYPE":0,"CLASSIFICATION_TYPE":"U","NORAD_CAT_ID":58466,"ELEMENT_SET_NO":999,"REV_AT_EPOCH":12611,"BSTAR":0.00030513019,"MEAN_MOTION_DOT":8.749e-5,"MEAN_MOTION_DDOT":0},{"OBJECT_NAME":"STARLINK-34808","OBJECT_ID":"2025-216M","EPOCH":"2026-03-09T23:29:47.050656","MEAN_MOTION":15.30216272,"ECCENTRICITY":0.00016809,"INCLINATION":53.1615,"RA_OF_ASC_NODE":331.1376,"ARG_OF_PERICENTER":133.4265,"MEAN_ANOMALY":226.6876,"EPHEMERIS_TYPE":0,"CLASSIFICATION_TYPE":"U","NORAD_CAT_ID":65745,"ELEMENT_SET_NO":999,"REV_AT_EPOCH":2656,"BSTAR":0.00077027856,"MEAN_MOTION_DOT":0.00022535,"MEAN_MOTION_DDOT":0}]
